ONEWEB-0392             
1 50472U 21132D   26062.83307302  .00000047  00000+0  88955-4 0  9998
2 50472  87.9152  26.7594 0001865  69.8830 290.2502 13.17648585204249
ONEWEB-0393             
1 50473U 21132E   26062.42652207  .00000017  00000+0  96015-5 0  9995
2 50473  87.9150  26.8637 0001875  74.8890 285.2449 13.17650412204189
ONEWEB-0394             
1 50474U 21132F   26062.78127580  .00000020  00000+0  18033-4 0  9993
2 50474  87.9248 356.3716 0001717  73.7366 286.3955 13.18685606207707
ONEWEB-0395             
1 50475U 21132G   26062.49600756 -.00000387  00000+0 -11284-2 0  9990
2 50475  87.8848  42.0886 0002065  80.7340 279.4021 13.11415913201860
ONEWEB-0396             
1 50476U 21132H   26062.31941850  .00000079  00000+0  16802-3 0  9993
2 50476  87.9250 356.4748 0001767  75.1630 284.9698 13.18685896207689
ONEWEB-0397             
1 50477U 21132J   26062.78952163  .00000019  00000+0  15969-4 0  9992
2 50477  87.9249 356.3819 0001622  76.9784 283.1529 13.18685128207722
ONEWEB-0398             
1 50478U 21132K   26062.46381340  .00000544  00000+0  15004-2 0  9992
2 50478  87.8858  42.0751 0002250  82.9236 277.2147 13.11416378201758
ONEWEB-0399             
1 50479U 21132L   26062.45024242  .00000136  00000+0  34835-3 0  9998
2 50479  87.8857  42.0873 0001583  69.0749 291.0549 13.11417922201741
ONEWEB-0400             
1 50480U 21132M   26062.76808201  .00000028  00000+0  38688-4 0  9990
2 50480  87.9250 356.3759 0002003  79.6307 280.5051 13.18685726207710
ONEWEB-0401             
1 50481U 21132N   26062.73672655  .00000072  00000+0  14933-3 0  9995
2 50481  87.9252 356.3780 0001631  81.8192 278.3125 13.18687511207711
ONEWEB-0402             
1 50482U 21132P   26062.32106194  .00000047  00000+0  86104-4 0  9993
2 50482  87.9249 356.4520 0001354  89.8596 270.2691 13.18686417207688
ONEWEB-0403             
1 50483U 21132Q   26062.80106846  .00000023  00000+0  25481-4 0  9996
2 50483  87.9252 356.3800 0001842  75.8630 284.2706 13.18685981207709
ONEWEB-0404             
1 50484U 21132R   26062.50787689 -.00000495  00000+0 -14323-2 0  9990
2 50484  87.8849  42.0836 0001850  73.4332 286.6999 13.11418008201847
ONEWEB-0405             
1 50485U 21132S   26061.07063884  .00009536  00000+0  24100-1 0  9992
2 50485  87.9247 356.7066 0002958  94.2242 265.9228 13.18769016207871
ONEWEB-0406             
1 50486U 21132T   26062.73013270 -.00000010  00000+0 -59040-4 0  9995
2 50486  87.9247 356.4036 0001836  63.3508 296.7812 13.18687363207721
ONEWEB-0407             
1 50487U 21132U   26062.79941436  .00000011  00000+0 -36285-5 0  9993
2 50487  87.9251 356.3733 0001768  84.1530 275.9803 13.18686036207679
ONEWEB-0409             
1 50488U 21132V   26062.50618416 -.00000522  00000+0 -15101-2 0  9991
2 50488  87.8857  42.0644 0001940  75.7186 284.4157 13.11418881201738
