[{"OBJECT_NAME":"ONEWEB-0392","OBJECT_ID":"2021-132D","EPOCH":"2026-03-03T19:59:37.508928","MEAN_MOTION":13.17648585,"ECCENTRICITY":0.0001865,"INCLINATION":87.9152,"RA_OF_ASC_NODE":26.7594,"ARG_OF_PERICENTER":69.883,"MEAN_ANOMALY":290.2502,"EPHEMERIS_TYPE":0,"CLASSIFICATION_TYPE":"U","NORAD_CAT_ID":50472,"ELEMENT_SET_NO":999,"REV_AT_EPOCH":20424,"BSTAR":8.8955e-5,"MEAN_MOTION_DOT":4.7e-7,"MEAN_MOTION_DDOT":0},{"OBJECT_NAME":"ONEWEB-0393","OBJECT_ID":"2021-132E","EPOCH":"2026-03-03T10:14:11.506848","MEAN_MOTION":13.17650412,"ECCENTRICITY":0.00018756,"INCLINATION":87.915,"RA_OF_ASC_NODE":26.8637,"ARG_OF_PERICENTER":74.889,"MEAN_ANOMALY":285.2449,"EPHEMERIS_TYPE":0,"CLASSIFICATION_TYPE":"U","NORAD_CAT_ID":50473,"ELEMENT_SET_NO":999,"REV_AT_EPOCH":20418,"BSTAR":9.601497e-6,"MEAN_MOTION_DOT":1.7e-7,"MEAN_MOTION_DDOT":0},{"OBJECT_NAME":"ONEWEB-0394","OBJECT_ID":"2021-132F","EPOCH":"2026-03-03T18:45:02.229120","MEAN_MOTION":13.18685606,"ECCENTRICITY":0.0001717,"INCLINATION":87.9248,"RA_OF_ASC_NODE":356.3716,"ARG_OF_PERICENTER":73.7366,"MEAN_ANOMALY":286.3955,"EPHEMERIS_TYPE":0,"CLASSIFICATION_TYPE":"U","NORAD_CAT_ID":50474,"ELEMENT_SET_NO":999,"REV_AT_EPOCH":20770,"BSTAR":1.8033e-5,"MEAN_MOTION_DOT":2.0e-7,"MEAN_MOTION_DDOT":0},{"OBJECT_NAME":"ONEWEB-0395","OBJECT_ID":"2021-132G","EPOCH":"2026-03-03T11:54:15.053184","MEAN_MOTION":13.11415913,"ECCENTRICITY":0.00020659,"INCLINATION":87.8848,"RA_OF_ASC_NODE":42.0886,"ARG_OF_PERICENTER":80.734,"MEAN_ANOMALY":279.4021,"EPHEMERIS_TYPE":0,"CLASSIFICATION_TYPE":"U","NORAD_CAT_ID":50475,"ELEMENT_SET_NO":999,"REV_AT_EPOCH":20186,"BSTAR":-0.0011284091,"MEAN_MOTION_DOT":-3.87e-6,"MEAN_MOTION_DDOT":0},{"OBJECT_NAME":"ONEWEB-0396","OBJECT_ID":"2021-132H","EPOCH":"2026-03-03T07:39:57.758400","MEAN_MOTION":13.18685896,"ECCENTRICITY":0.00017675,"INCLINATION":87.925,"RA_OF_ASC_NODE":356.4748,"ARG_OF_PERICENTER":75.163,"MEAN_ANOMALY":284.9698,"EPHEMERIS_TYPE":0,"CLASSIFICATION_TYPE":"U","NORAD_CAT_ID":50476,"ELEMENT_SET_NO":999,"REV_AT_EPOCH":20768,"BSTAR":0.00016802037,"MEAN_MOTION_DOT":7.9e-7,"MEAN_MOTION_DDOT":0},{"OBJECT_NAME":"ONEWEB-0397","OBJECT_ID":"2021-132J","EPOCH":"2026-03-03T18:56:54.668832","MEAN_MOTION":13.18685128,"ECCENTRICITY":0.0001622,"INCLINATION":87.9249,"RA_OF_ASC_NODE":356.3819,"ARG_OF_PERICENTER":76.9784,"MEAN_ANOMALY":283.1529,"EPHEMERIS_TYPE":0,"CLASSIFICATION_TYPE":"U","NORAD_CAT_ID":50477,"ELEMENT_SET_NO":999,"REV_AT_EPOCH":20772,"BSTAR":1.5969e-5,"MEAN_MOTION_DOT":1.9e-7,"MEAN_MOTION_DDOT":0},{"OBJECT_NAME":"ONEWEB-0398","OBJECT_ID":"2021-132K","EPOCH":"2026-03-03T11:07:53.477760","MEAN_MOTION":13.11416378,"ECCENTRICITY":0.00022505,"INCLINATION":87.8858,"RA_OF_ASC_NODE":42.0751,"ARG_OF_PERICENTER":82.9236,"MEAN_ANOMALY":277.2147,"EPHEMERIS_TYPE":0,"CLASSIFICATION_TYPE":"U","NORAD_CAT_ID":50478,"ELEMENT_SET_NO":999,"REV_AT_EPOCH":20175,"BSTAR":0.0015004084,"MEAN_MOTION_DOT":5.44e-6,"MEAN_MOTION_DDOT":0},{"OBJECT_NAME":"ONEWEB-0399","OBJECT_ID":"2021-132L","EPOCH":"2026-03-03T10:48:20.945088","MEAN_MOTION":13.11417922,"ECCENTRICITY":0.00015835,"INCLINATION":87.8857,"RA_OF_ASC_NODE":42.0873,"ARG_OF_PERICENTER":69.0749,"MEAN_ANOMALY":291.0549,"EPHEMERIS_TYPE":0,"CLASSIFICATION_TYPE":"U","NORAD_CAT_ID":50479,"ELEMENT_SET_NO":999,"REV_AT_EPOCH":20174,"BSTAR":0.0003483541,"MEAN_MOTION_DOT":1.36e-6,"MEAN_MOTION_DDOT":0},{"OBJECT_NAME":"ONEWEB-0400","OBJECT_ID":"2021-132M","EPOCH":"2026-03-03T18:26:02.285664","MEAN_MOTION":13.18685726,"ECCENTRICITY":0.0002003,"INCLINATION":87.925,"RA_OF_ASC_NODE":356.3759,"ARG_OF_PERICENTER":79.6307,"MEAN_ANOMALY":280.5051,"EPHEMERIS_TYPE":0,"CLASSIFICATION_TYPE":"U","NORAD_CAT_ID":50480,"ELEMENT_SET_NO":999,"REV_AT_EPOCH":20771,"BSTAR":3.8688e-5,"MEAN_MOTION_DOT":2.8e-7,"MEAN_MOTION_DDOT":0},{"OBJECT_NAME":"ONEWEB-0401","OBJECT_ID":"2021-132N","EPOCH":"2026-03-03T17:40:53.173920","MEAN_MOTION":13.18687511,"ECCENTRICITY":0.0001631,"INCLINATION":87.9252,"RA_OF_ASC_NODE":356.378,"ARG_OF_PERICENTER":81.8192,"MEAN_ANOMALY":278.3125,"EPHEMERIS_TYPE":0,"CLASSIFICATION_TYPE":"U","NORAD_CAT_ID":50481,"ELEMENT_SET_NO":999,"REV_AT_EPOCH":20771,"BSTAR":0.00014933,"MEAN_MOTION_DOT":7.2e-7,"MEAN_MOTION_DDOT":0},{"OBJECT_NAME":"ONEWEB-0402","OBJECT_ID":"2021-132P","EPOCH":"2026-03-03T07:42:19.751616","MEAN_MOTION":13.18686417,"ECCENTRICITY":0.00013542,"INCLINATION":87.9249,"RA_OF_ASC_NODE":356.452,"ARG_OF_PERICENTER":89.8596,"MEAN_ANOMALY":270.2691,"EPHEMERIS_TYPE":0,"CLASSIFICATION_TYPE":"U","NORAD_CAT_ID":50482,"ELEMENT_SET_NO":999,"REV_AT_EPOCH":20768,"BSTAR":8.6104272e-5,"MEAN_MOTION_DOT":4.7e-7,"MEAN_MOTION_DDOT":0},{"OBJECT_NAME":"ONEWEB-0403","OBJECT_ID":"2021-132Q","EPOCH":"2026-03-03T19:13:32.314944","MEAN_MOTION":13.18685981,"ECCENTRICITY":0.0001842,"INCLINATION":87.9252,"RA_OF_ASC_NODE":356.38,"ARG_OF_PERICENTER":75.863,"MEAN_ANOMALY":284.2706,"EPHEMERIS_TYPE":0,"CLASSIFICATION_TYPE":"U","NORAD_CAT_ID":50483,"ELEMENT_SET_NO":999,"REV_AT_EPOCH":20770,"BSTAR":2.5481e-5,"MEAN_MOTION_DOT":2.3e-7,"MEAN_MOTION_DDOT":0},{"OBJECT_NAME":"ONEWEB-0404","OBJECT_ID":"2021-132R","EPOCH":"2026-03-03T12:11:20.563296","MEAN_MOTION":13.11418008,"ECCENTRICITY":0.000185,"INCLINATION":87.8849,"RA_OF_ASC_NODE":42.0836,"ARG_OF_PERICENTER":73.4332,"MEAN_ANOMALY":286.6999,"EPHEMERIS_TYPE":0,"CLASSIFICATION_TYPE":"U","NORAD_CAT_ID":50484,"ELEMENT_SET_NO":999,"REV_AT_EPOCH":20184,"BSTAR":-0.0014323,"MEAN_MOTION_DOT":-4.95e-6,"MEAN_MOTION_DDOT":0},{"OBJECT_NAME":"ONEWEB-0405","OBJECT_ID":"2021-132S","EPOCH":"2026-03-02T01:41:43.195776","MEAN_MOTION":13.18769016,"ECCENTRICITY":0.00029583,"INCLINATION":87.9247,"RA_OF_ASC_NODE":356.7066,"ARG_OF_PERICENTER":94.2242,"MEAN_ANOMALY":265.9228,"EPHEMERIS_TYPE":0,"CLASSIFICATION_TYPE":"U","NORAD_CAT_ID":50485,"ELEMENT_SET_NO":999,"REV_AT_EPOCH":20787,"BSTAR":0.02409973,"MEAN_MOTION_DOT":9.536e-5,"MEAN_MOTION_DDOT":0},{"OBJECT_NAME":"ONEWEB-0406","OBJECT_ID":"2021-132T","EPOCH":"2026-03-03T17:31:23.465280","MEAN_MOTION":13.18687363,"ECCENTRICITY":0.0001836,"INCLINATION":87.9247,"RA_OF_ASC_NODE":356.4036,"ARG_OF_PERICENTER":63.3508,"MEAN_ANOMALY":296.7812,"EPHEMERIS_TYPE":0,"CLASSIFICATION_TYPE":"U","NORAD_CAT_ID":50486,"ELEMENT_SET_NO":999,"REV_AT_EPOCH":20772,"BSTAR":-5.904e-5,"MEAN_MOTION_DOT":-1.0e-7,"MEAN_MOTION_DDOT":0},{"OBJECT_NAME":"ONEWEB-0407","OBJECT_ID":"2021-132U","EPOCH":"2026-03-03T19:11:09.400704","MEAN_MOTION":13.18686036,"ECCENTRICITY":0.0001768,"INCLINATION":87.9251,"RA_OF_ASC_NODE":356.3733,"ARG_OF_PERICENTER":84.153,"MEAN_ANOMALY":275.9803,"EPHEMERIS_TYPE":0,"CLASSIFICATION_TYPE":"U","NORAD_CAT_ID":50487,"ELEMENT_SET_NO":999,"REV_AT_EPOCH":20767,"BSTAR":-3.6285e-6,"MEAN_MOTION_DOT":1.1e-7,"MEAN_MOTION_DDOT":0},{"OBJECT_NAME":"ONEWEB-0409","OBJECT_ID":"2021-132V","EPOCH":"2026-03-03T12:08:54.311424","MEAN_MOTION":13.11418881,"ECCENTRICITY":0.000194,"INCLINATION":87.8857,"RA_OF_ASC_NODE":42.0644,"ARG_OF_PERICENTER":75.7186,"MEAN_ANOMALY":284.4157,"EPHEMERIS_TYPE":0,"CLASSIFICATION_TYPE":"U","NORAD_CAT_ID":50488,"ELEMENT_SET_NO":999,"REV_AT_EPOCH":20173,"BSTAR":-0.0015101,"MEAN_MOTION_DOT":-5.22e-6,"MEAN_MOTION_DDOT":0}]
